ONEWEB-0323             
1 49106U 21075AH  26073.50670700  .00000404  00000+0  10867-2 0  9999
2 49106  87.9010   9.4400 0001604  57.8418 302.2866 13.12442661222135
ONEWEB-0329             
1 49107U 21075AJ  26073.41351078  .00000036  00000+0  58780-4 0  9993
2 49107  87.9159  24.6880 0001888  75.0720 285.0620 13.17649070221103
ONEWEB-0330             
1 49108U 21075AK  26073.57311202  .00000073  00000+0  15945-3 0  9992
2 49108  87.9161  24.6670 0002079  74.8790 285.2571 13.16080738221163
ONEWEB-0292             
1 49186U 21083A   26073.47679114  .00000095  00000+0  22596-3 0  9999
2 49186  87.9023 339.0921 0001543  75.1263 285.0037 13.13474173218496
ONEWEB-0303             
1 49187U 21083B   26073.53429243  .00000008  00000+0 -11395-4 0  9994
2 49187  87.9255 354.2597 0001672  73.4721 286.6595 13.18686594217509
ONEWEB-0306             
1 49188U 21083C   26073.52439439  .00000067  00000+0  13779-3 0  9993
2 49188  87.9254 354.2451 0001991  82.1252 278.0106 13.18686670217540
ONEWEB-0307             
1 49189U 21083D   26073.47088434  .00000030  00000+0  48376-4 0  9995
2 49189  87.9021 339.0824 0001743  78.3758 281.7567 13.13471118218492
ONEWEB-0320             
1 49190U 21083E   26073.46480949  .00000074  00000+0  15557-3 0  9995
2 49190  87.9243 354.2830 0001792  77.6260 282.5073 13.18133622217490
ONEWEB-0321             
1 49191U 21083F   26073.58069109 -.00000032  00000+0 -11109-3 0  9995
2 49191  87.9164 293.3263 0001953  90.2300 269.9058 13.20770322224342
ONEWEB-0322             
1 49192U 21083G   26073.46664759 -.00000043  00000+0 -15217-3 0  9991
2 49192  87.9023 339.0881 0001951  93.2189 266.9163 13.13470924218486
ONEWEB-0324             
1 49193U 21083H   26073.51779825  .00000022  00000+0  23220-4 0  9998
2 49193  87.9251 354.2521 0001929  75.5178 284.6168 13.18686488217521
ONEWEB-0325             
1 49194U 21083J   26073.52110138  .00000044  00000+0  79318-4 0  9999
2 49194  87.9244 354.2682 0001752  80.0124 280.1206 13.18687193217537
ONEWEB-0326             
1 49195U 21083K   26073.53607474  .00000155  00000+0  36135-3 0  9997
2 49195  87.9246 354.2557 0001647  70.5073 289.6237 13.18687108217524
ONEWEB-0327             
1 49196U 21083L   26073.23228420  .00000006  00000+0 -16871-4 0  9997
2 49196  87.9241 354.3273 0001397  76.1676 283.9612 13.18685432217509
ONEWEB-0328             
1 49197U 21083M   26073.45648733 -.00000175  00000+0 -51495-3 0  9993
2 49197  87.9035 339.0515 0001741  75.7549 284.3774 13.13470994218467
ONEWEB-0331             
1 49198U 21083N   26073.52934686 -.00000035  00000+0 -12187-3 0  9997
2 49198  87.9254 354.2498 0001684  68.6148 291.5164 13.18687044217533
ONEWEB-0333             
1 49199U 21083P   26073.22287534 -.00000218  00000+0 -63093-3 0  9993
2 49199  87.9024 339.1349 0001711  79.5604 280.5718 13.13470683218443
