[{"OBJECT_NAME":"ONEWEB-0323","OBJECT_ID":"2021-075AH","EPOCH":"2026-03-14T12:09:39.484800","MEAN_MOTION":13.12442661,"ECCENTRICITY":0.00016045,"INCLINATION":87.901,"RA_OF_ASC_NODE":9.44,"ARG_OF_PERICENTER":57.8418,"MEAN_ANOMALY":302.2866,"EPHEMERIS_TYPE":0,"CLASSIFICATION_TYPE":"U","NORAD_CAT_ID":49106,"ELEMENT_SET_NO":999,"REV_AT_EPOCH":22213,"BSTAR":0.0010866737,"MEAN_MOTION_DOT":4.04e-6,"MEAN_MOTION_DDOT":0},{"OBJECT_NAME":"ONEWEB-0329","OBJECT_ID":"2021-075AJ","EPOCH":"2026-03-14T09:55:27.331392","MEAN_MOTION":13.1764907,"ECCENTRICITY":0.0001888,"INCLINATION":87.9159,"RA_OF_ASC_NODE":24.688,"ARG_OF_PERICENTER":75.072,"MEAN_ANOMALY":285.062,"EPHEMERIS_TYPE":0,"CLASSIFICATION_TYPE":"U","NORAD_CAT_ID":49107,"ELEMENT_SET_NO":999,"REV_AT_EPOCH":22110,"BSTAR":5.8780472e-5,"MEAN_MOTION_DOT":3.6e-7,"MEAN_MOTION_DDOT":0},{"OBJECT_NAME":"ONEWEB-0330","OBJECT_ID":"2021-075AK","EPOCH":"2026-03-14T13:45:16.878528","MEAN_MOTION":13.16080738,"ECCENTRICITY":0.00020798,"INCLINATION":87.9161,"RA_OF_ASC_NODE":24.667,"ARG_OF_PERICENTER":74.879,"MEAN_ANOMALY":285.2571,"EPHEMERIS_TYPE":0,"CLASSIFICATION_TYPE":"U","NORAD_CAT_ID":49108,"ELEMENT_SET_NO":999,"REV_AT_EPOCH":22116,"BSTAR":0.000159446,"MEAN_MOTION_DOT":7.3e-7,"MEAN_MOTION_DDOT":0},{"OBJECT_NAME":"ONEWEB-0292","OBJECT_ID":"2021-083A","EPOCH":"2026-03-14T11:26:34.754496","MEAN_MOTION":13.13474173,"ECCENTRICITY":0.00015438,"INCLINATION":87.9023,"RA_OF_ASC_NODE":339.0921,"ARG_OF_PERICENTER":75.1263,"MEAN_ANOMALY":285.0037,"EPHEMERIS_TYPE":0,"CLASSIFICATION_TYPE":"U","NORAD_CAT_ID":49186,"ELEMENT_SET_NO":999,"REV_AT_EPOCH":21849,"BSTAR":0.00022595523,"MEAN_MOTION_DOT":9.5e-7,"MEAN_MOTION_DDOT":0},{"OBJECT_NAME":"ONEWEB-0303","OBJECT_ID":"2021-083B","EPOCH":"2026-03-14T12:49:22.865952","MEAN_MOTION":13.18686594,"ECCENTRICITY":0.00016722,"INCLINATION":87.9255,"RA_OF_ASC_NODE":354.2597,"ARG_OF_PERICENTER":73.4721,"MEAN_ANOMALY":286.6595,"EPHEMERIS_TYPE":0,"CLASSIFICATION_TYPE":"U","NORAD_CAT_ID":49187,"ELEMENT_SET_NO":999,"REV_AT_EPOCH":21750,"BSTAR":-1.1395405e-5,"MEAN_MOTION_DOT":8.0e-8,"MEAN_MOTION_DDOT":0},{"OBJECT_NAME":"ONEWEB-0306","OBJECT_ID":"2021-083C","EPOCH":"2026-03-14T12:35:07.675296","MEAN_MOTION":13.1868667,"ECCENTRICITY":0.00019918,"INCLINATION":87.9254,"RA_OF_ASC_NODE":354.2451,"ARG_OF_PERICENTER":82.1252,"MEAN_ANOMALY":278.0106,"EPHEMERIS_TYPE":0,"CLASSIFICATION_TYPE":"U","NORAD_CAT_ID":49188,"ELEMENT_SET_NO":999,"REV_AT_EPOCH":21754,"BSTAR":0.00013778623,"MEAN_MOTION_DOT":6.7e-7,"MEAN_MOTION_DDOT":0},{"OBJECT_NAME":"ONEWEB-0307","OBJECT_ID":"2021-083D","EPOCH":"2026-03-14T11:18:04.406976","MEAN_MOTION":13.13471118,"ECCENTRICITY":0.00017434,"INCLINATION":87.9021,"RA_OF_ASC_NODE":339.0824,"ARG_OF_PERICENTER":78.3758,"MEAN_ANOMALY":281.7567,"EPHEMERIS_TYPE":0,"CLASSIFICATION_TYPE":"U","NORAD_CAT_ID":49189,"ELEMENT_SET_NO":999,"REV_AT_EPOCH":21849,"BSTAR":4.8376138e-5,"MEAN_MOTION_DOT":3.0e-7,"MEAN_MOTION_DDOT":0},{"OBJECT_NAME":"ONEWEB-0320","OBJECT_ID":"2021-083E","EPOCH":"2026-03-14T11:09:19.539936","MEAN_MOTION":13.18133622,"ECCENTRICITY":0.00017921,"INCLINATION":87.9243,"RA_OF_ASC_NODE":354.283,"ARG_OF_PERICENTER":77.626,"MEAN_ANOMALY":282.5073,"EPHEMERIS_TYPE":0,"CLASSIFICATION_TYPE":"U","NORAD_CAT_ID":49190,"ELEMENT_SET_NO":999,"REV_AT_EPOCH":21749,"BSTAR":0.0001555701,"MEAN_MOTION_DOT":7.4e-7,"MEAN_MOTION_DDOT":0},{"OBJECT_NAME":"ONEWEB-0321","OBJECT_ID":"2021-083F","EPOCH":"2026-03-14T13:56:11.710176","MEAN_MOTION":13.20770322,"ECCENTRICITY":0.00019535,"INCLINATION":87.9164,"RA_OF_ASC_NODE":293.3263,"ARG_OF_PERICENTER":90.23,"MEAN_ANOMALY":269.9058,"EPHEMERIS_TYPE":0,"CLASSIFICATION_TYPE":"U","NORAD_CAT_ID":49191,"ELEMENT_SET_NO":999,"REV_AT_EPOCH":22434,"BSTAR":-0.00011108873,"MEAN_MOTION_DOT":-3.2e-7,"MEAN_MOTION_DDOT":0},{"OBJECT_NAME":"ONEWEB-0322","OBJECT_ID":"2021-083G","EPOCH":"2026-03-14T11:11:58.351776","MEAN_MOTION":13.13470924,"ECCENTRICITY":0.00019515,"INCLINATION":87.9023,"RA_OF_ASC_NODE":339.0881,"ARG_OF_PERICENTER":93.2189,"MEAN_ANOMALY":266.9163,"EPHEMERIS_TYPE":0,"CLASSIFICATION_TYPE":"U","NORAD_CAT_ID":49192,"ELEMENT_SET_NO":999,"REV_AT_EPOCH":21848,"BSTAR":-0.00015216735,"MEAN_MOTION_DOT":-4.3e-7,"MEAN_MOTION_DDOT":0},{"OBJECT_NAME":"ONEWEB-0324","OBJECT_ID":"2021-083H","EPOCH":"2026-03-14T12:25:37.768800","MEAN_MOTION":13.18686488,"ECCENTRICITY":0.00019294,"INCLINATION":87.9251,"RA_OF_ASC_NODE":354.2521,"ARG_OF_PERICENTER":75.5178,"MEAN_ANOMALY":284.6168,"EPHEMERIS_TYPE":0,"CLASSIFICATION_TYPE":"U","NORAD_CAT_ID":49193,"ELEMENT_SET_NO":999,"REV_AT_EPOCH":21752,"BSTAR":2.3219949e-5,"MEAN_MOTION_DOT":2.2e-7,"MEAN_MOTION_DDOT":0},{"OBJECT_NAME":"ONEWEB-0325","OBJECT_ID":"2021-083J","EPOCH":"2026-03-14T12:30:23.159232","MEAN_MOTION":13.18687193,"ECCENTRICITY":0.00017524,"INCLINATION":87.9244,"RA_OF_ASC_NODE":354.2682,"ARG_OF_PERICENTER":80.0124,"MEAN_ANOMALY":280.1206,"EPHEMERIS_TYPE":0,"CLASSIFICATION_TYPE":"U","NORAD_CAT_ID":49194,"ELEMENT_SET_NO":999,"REV_AT_EPOCH":21753,"BSTAR":7.931829e-5,"MEAN_MOTION_DOT":4.4e-7,"MEAN_MOTION_DDOT":0},{"OBJECT_NAME":"ONEWEB-0326","OBJECT_ID":"2021-083K","EPOCH":"2026-03-14T12:51:56.857536","MEAN_MOTION":13.18687108,"ECCENTRICITY":0.00016473,"INCLINATION":87.9246,"RA_OF_ASC_NODE":354.2557,"ARG_OF_PERICENTER":70.5073,"MEAN_ANOMALY":289.6237,"EPHEMERIS_TYPE":0,"CLASSIFICATION_TYPE":"U","NORAD_CAT_ID":49195,"ELEMENT_SET_NO":999,"REV_AT_EPOCH":21752,"BSTAR":0.0003613479,"MEAN_MOTION_DOT":1.55e-6,"MEAN_MOTION_DDOT":0},{"OBJECT_NAME":"ONEWEB-0327","OBJECT_ID":"2021-083L","EPOCH":"2026-03-14T05:34:29.354880","MEAN_MOTION":13.18685432,"ECCENTRICITY":0.00013975,"INCLINATION":87.9241,"RA_OF_ASC_NODE":354.3273,"ARG_OF_PERICENTER":76.1676,"MEAN_ANOMALY":283.9612,"EPHEMERIS_TYPE":0,"CLASSIFICATION_TYPE":"U","NORAD_CAT_ID":49196,"ELEMENT_SET_NO":999,"REV_AT_EPOCH":21750,"BSTAR":-1.6871126e-5,"MEAN_MOTION_DOT":6.0e-8,"MEAN_MOTION_DDOT":0},{"OBJECT_NAME":"ONEWEB-0328","OBJECT_ID":"2021-083M","EPOCH":"2026-03-14T10:57:20.505312","MEAN_MOTION":13.13470994,"ECCENTRICITY":0.00017416,"INCLINATION":87.9035,"RA_OF_ASC_NODE":339.0515,"ARG_OF_PERICENTER":75.7549,"MEAN_ANOMALY":284.3774,"EPHEMERIS_TYPE":0,"CLASSIFICATION_TYPE":"U","NORAD_CAT_ID":49197,"ELEMENT_SET_NO":999,"REV_AT_EPOCH":21846,"BSTAR":-0.00051494796,"MEAN_MOTION_DOT":-1.75e-6,"MEAN_MOTION_DDOT":0},{"OBJECT_NAME":"ONEWEB-0331","OBJECT_ID":"2021-083N","EPOCH":"2026-03-14T12:42:15.568704","MEAN_MOTION":13.18687044,"ECCENTRICITY":0.00016842,"INCLINATION":87.9254,"RA_OF_ASC_NODE":354.2498,"ARG_OF_PERICENTER":68.6148,"MEAN_ANOMALY":291.5164,"EPHEMERIS_TYPE":0,"CLASSIFICATION_TYPE":"U","NORAD_CAT_ID":49198,"ELEMENT_SET_NO":999,"REV_AT_EPOCH":21753,"BSTAR":-0.00012187486,"MEAN_MOTION_DOT":-3.5e-7,"MEAN_MOTION_DDOT":0},{"OBJECT_NAME":"ONEWEB-0333","OBJECT_ID":"2021-083P","EPOCH":"2026-03-14T05:20:56.429376","MEAN_MOTION":13.13470683,"ECCENTRICITY":0.0001711,"INCLINATION":87.9024,"RA_OF_ASC_NODE":339.1349,"ARG_OF_PERICENTER":79.5604,"MEAN_ANOMALY":280.5718,"EPHEMERIS_TYPE":0,"CLASSIFICATION_TYPE":"U","NORAD_CAT_ID":49199,"ELEMENT_SET_NO":999,"REV_AT_EPOCH":21844,"BSTAR":-0.00063093091,"MEAN_MOTION_DOT":-2.18e-6,"MEAN_MOTION_DDOT":0}]
